{
  "type": "FeatureCollection",
  "features": [
    {
      "type": "Feature",
      "properties": {
        "norad_id": 67039,
        "name": "STARLINK-35705",
        "group": "last-30-days",
        "lat": 42.30742586893515,
        "lon": -171.11828573337996,
        "alt_km": 339.20676106685005,
        "timestamp": "2025-12-24T07:45:04.935236+00:00",
        "meta_object_name": "STARLINK-35705",
        "meta_object_id": "2025-294K",
        "meta_epoch": "2025-12-23T22:00:01.999584",
        "meta_mean_motion": 15.7666935,
        "meta_eccentricity": 0.00015119,
        "meta_inclination": 42.9997,
        "meta_ra_of_asc_node": 113.727,
        "meta_arg_of_pericenter": 275.4501,
        "meta_mean_anomaly": 17.8208,
        "meta_ephemeris_type": 0,
        "meta_classification_type": "U",
        "meta_norad_cat_id": 67039,
        "meta_element_set_no": 999,
        "meta_rev_at_epoch": 191,
        "meta_bstar": -0.01344519,
        "meta_mean_motion_dot": -0.01927395,
        "meta_mean_motion_ddot": 0,
        "tle_line1": "1 67039U 25294K   25357.91668981 -.01927395  00000+0 -13445-1 0  9992",
        "tle_line2": "2 67039  42.9997 113.7270 0001511 275.4501  17.8208 15.76669350  1915"
      },
      "geometry": {
        "type": "Point",
        "coordinates": [
          -171.11828573337996,
          42.30742586893515
        ]
      }
    },
    {
      "type": "Feature",
      "properties": {
        "norad_id": 67040,
        "name": "STARLINK-35786",
        "group": "last-30-days",
        "lat": 41.97228038214892,
        "lon": -173.86618696121752,
        "alt_km": 339.28047618169967,
        "timestamp": "2025-12-24T07:45:04.935245+00:00",
        "meta_object_name": "STARLINK-35786",
        "meta_object_id": "2025-294L",
        "meta_epoch": "2025-12-23T22:00:01.999584",
        "meta_mean_motion": 15.76680487,
        "meta_eccentricity": 0.00016989,
        "meta_inclination": 42.9999,
        "meta_ra_of_asc_node": 113.7324,
        "meta_arg_of_pericenter": 280.0738,
        "meta_mean_anomaly": 11.1124,
        "meta_ephemeris_type": 0,
        "meta_classification_type": "U",
        "meta_norad_cat_id": 67040,
        "meta_element_set_no": 999,
        "meta_rev_at_epoch": 191,
        "meta_bstar": -0.013449135,
        "meta_mean_motion_dot": -0.01928899,
        "meta_mean_motion_ddot": 0,
        "tle_line1": "1 67040U 25294L   25357.91668981 -.01928899  00000+0 -13449-1 0  9998",
        "tle_line2": "2 67040  42.9999 113.7324 0001698 280.0738  11.1124 15.76680487  1917"
      },
      "geometry": {
        "type": "Point",
        "coordinates": [
          -173.86618696121752,
          41.97228038214892
        ]
      }
    },
    {
      "type": "Feature",
      "properties": {
        "norad_id": 67041,
        "name": "STARLINK-35765",
        "group": "last-30-days",
        "lat": 42.570166822091494,
        "lon": -168.41573121185485,
        "alt_km": 339.2534838219626,
        "timestamp": "2025-12-24T07:45:04.935255+00:00",
        "meta_object_name": "STARLINK-35765",
        "meta_object_id": "2025-294M",
        "meta_epoch": "2025-12-23T22:00:01.999584",
        "meta_mean_motion": 15.76665364,
        "meta_eccentricity": 0.00016202,
        "meta_inclination": 42.9997,
        "meta_ra_of_asc_node": 113.7217,
        "meta_arg_of_pericenter": 277.1139,
        "meta_mean_anomaly": 18.1754,
        "meta_ephemeris_type": 0,
        "meta_classification_type": "U",
        "meta_norad_cat_id": 67041,
        "meta_element_set_no": 999,
        "meta_rev_at_epoch": 191,
        "meta_bstar": -0.013449128,
        "meta_mean_motion_dot": -0.01927689,
        "meta_mean_motion_ddot": 0,
        "tle_line1": "1 67041U 25294M   25357.91668981 -.01927689  00000+0 -13449-1 0  9995",
        "tle_line2": "2 67041  42.9997 113.7217 0001620 277.1139  18.1754 15.76665364  1917"
      },
      "geometry": {
        "type": "Point",
        "coordinates": [
          -168.41573121185485,
          42.570166822091494
        ]
      }
    },
    {
      "type": "Feature",
      "properties": {
        "norad_id": 67042,
        "name": "STARLINK-35773",
        "group": "last-30-days",
        "lat": 42.779598662584235,
        "lon": -165.51380936408245,
        "alt_km": 339.1623478314996,
        "timestamp": "2025-12-24T07:45:04.935265+00:00",
        "meta_object_name": "STARLINK-35773",
        "meta_object_id": "2025-294N",
        "meta_epoch": "2025-12-23T22:00:01.999584",
        "meta_mean_motion": 15.76652125,
        "meta_eccentricity": 0.00014789,
        "meta_inclination": 42.9999,
        "meta_ra_of_asc_node": 113.7163,
        "meta_arg_of_pericenter": 277.8352,
        "meta_mean_anomaly": 19.6167,
        "meta_ephemeris_type": 0,
        "meta_classification_type": "U",
        "meta_norad_cat_id": 67042,
        "meta_element_set_no": 999,
        "meta_rev_at_epoch": 210,
        "meta_bstar": -0.013432333,
        "meta_mean_motion_dot": -0.01924483,
        "meta_mean_motion_ddot": 0,
        "tle_line1": "1 67042U 25294N   25357.91668981 -.01924483  00000+0 -13432-1 0  9997",
        "tle_line2": "2 67042  42.9999 113.7163 0001478 277.8352  19.6167 15.76652125  2102"
      },
      "geometry": {
        "type": "Point",
        "coordinates": [
          -165.51380936408245,
          42.779598662584235
        ]
      }
    },
    {
      "type": "Feature",
      "properties": {
        "norad_id": 67043,
        "name": "STARLINK-35901",
        "group": "last-30-days",
        "lat": 42.91418328103986,
        "lon": -162.61242656783145,
        "alt_km": 339.2745978235753,
        "timestamp": "2025-12-24T07:45:04.935277+00:00",
        "meta_object_name": "STARLINK-35901",
        "meta_object_id": "2025-294P",
        "meta_epoch": "2025-12-23T22:00:01.999584",
        "meta_mean_motion": 15.76646923,
        "meta_eccentricity": 0.00016398,
        "meta_inclination": 42.9998,
        "meta_ra_of_asc_node": 113.7112,
        "meta_arg_of_pericenter": 280.82,
        "meta_mean_anomaly": 18.7754,
        "meta_ephemeris_type": 0,
        "meta_classification_type": "U",
        "meta_norad_cat_id": 67043,
        "meta_element_set_no": 999,
        "meta_rev_at_epoch": 210,
        "meta_bstar": -0.013486396,
        "meta_mean_motion_dot": -0.01930938,
        "meta_mean_motion_ddot": 0,
        "tle_line1": "1 67043U 25294P   25357.91668981 -.01930938  00000+0 -13486-1 0  9999",
        "tle_line2": "2 67043  42.9998 113.7112 0001639 280.8200  18.7754 15.76646923  2102"
      },
      "geometry": {
        "type": "Point",
        "coordinates": [
          -162.61242656783145,
          42.91418328103986
        ]
      }
    },
    {
      "type": "Feature",
      "properties": {
        "norad_id": 67044,
        "name": "STARLINK-35884",
        "group": "last-30-days",
        "lat": 42.975024793985064,
        "lon": -159.7678939073817,
        "alt_km": 339.32236481513337,
        "timestamp": "2025-12-24T07:45:04.935289+00:00",
        "meta_object_name": "STARLINK-35884",
        "meta_object_id": "2025-294Q",
        "meta_epoch": "2025-12-23T22:00:01.999584",
        "meta_mean_motion": 15.76636508,
        "meta_eccentricity": 0.00016015,
        "meta_inclination": 43.0003,
        "meta_ra_of_asc_node": 113.7059,
        "meta_arg_of_pericenter": 275.2037,
        "meta_mean_anomaly": 26.4928,
        "meta_ephemeris_type": 0,
        "meta_classification_type": "U",
        "meta_norad_cat_id": 67044,
        "meta_element_set_no": 999,
        "meta_rev_at_epoch": 210,
        "meta_bstar": -0.013473557,
        "meta_mean_motion_dot": -0.01928532,
        "meta_mean_motion_ddot": 0,
        "tle_line1": "1 67044U 25294Q   25357.91668981 -.01928532  00000+0 -13474-1 0  9994",
        "tle_line2": "2 67044  43.0003 113.7059 0001601 275.2037  26.4928 15.76636508  2104"
      },
      "geometry": {
        "type": "Point",
        "coordinates": [
          -159.7678939073817,
          42.975024793985064
        ]
      }
    },
    {
      "type": "Feature",
      "properties": {
        "norad_id": 67045,
        "name": "STARLINK-35891",
        "group": "last-30-days",
        "lat": 42.95752524377663,
        "lon": -156.53558765503112,
        "alt_km": 339.4635204659162,
        "timestamp": "2025-12-24T07:45:04.935299+00:00",
        "meta_object_name": "STARLINK-35891",
        "meta_object_id": "2025-294R",
        "meta_epoch": "2025-12-23T22:00:01.999584",
        "meta_mean_motion": 15.76615814,
        "meta_eccentricity": 0.00017574,
        "meta_inclination": 43.0001,
        "meta_ra_of_asc_node": 113.6996,
        "meta_arg_of_pericenter": 280.4031,
        "meta_mean_anomaly": 23.6867,
        "meta_ephemeris_type": 0,
        "meta_classification_type": "U",
        "meta_norad_cat_id": 67045,
        "meta_element_set_no": 999,
        "meta_rev_at_epoch": 202,
        "meta_bstar": -0.013468307,
        "meta_mean_motion_dot": -0.01926488,
        "meta_mean_motion_ddot": 0,
        "tle_line1": "1 67045U 25294R   25357.91668981 -.01926488  00000+0 -13468-1 0  9996",
        "tle_line2": "2 67045  43.0001 113.6996 0001757 280.4031  23.6867 15.76615814  2025"
      },
      "geometry": {
        "type": "Point",
        "coordinates": [
          -156.53558765503112,
          42.95752524377663
        ]
      }
    }
  ]
}